1 44961U 20001AZ  23309.08050108  .00011640  00000-0  79871-3 0  9993
2 44961  53.0533 187.5988 0001812  98.8417 261.2777 15.06416354211450
1 44961U 20001AZ  23309.81031612  .00001676  00000-0  13139-3 0  9996
2 44961  53.0534 184.3179 0002042 104.3225 255.7991 15.06404651211569
1 44961U 20001AZ  23309.94300939  .00005985  00000-0  42023-3 0  9992
2 44961  53.0531 183.7265 0001658  93.2661 266.8518 15.06411316211583
1 44961U 20001AZ  23310.07570009  .00008250  00000-0  57182-3 0  9995
2 44961  53.0531 183.1304 0001678  92.6344 267.4837 15.06419002211608
1 44961U 20001AZ  23310.07570009  .00008250  00000-0  57182-3 0  9995
2 44961  53.0531 183.1304 0001678  92.6344 267.4837 15.06419002211608
1 44961U 20001AZ  23310.80551287  .00003936  00000-0  28294-3 0  9991
2 44961  53.0536 179.8532 0001711  89.1330 270.9855 15.06410549211710
1 44961U 20001AZ  23310.87185973  .00002774  00000-0  20500-3 0  9994
2 44961  53.0537 179.5553 0001697  88.5212 271.5971 15.06408349211728
1 44961U 20001AZ  23311.33628919 -.00001358  00000-0 -72262-4 0  9990
2 44961  53.0535 177.4709 0001789  85.9244 274.1949 15.06395659211794
1 44961U 20001AZ  23311.33628919 -.00001358  00000-0 -72262-4 0  9990
2 44961  53.0535 177.4709 0001789  85.9244 274.1949 15.06395659211794
1 44961U 20001AZ  23311.80072658 -.00000930  00000-0 -43587-4 0  9998
2 44961  53.0537 175.3895 0001935  90.1790 269.9421 15.06380939211866
1 44961U 20001AZ  23312.06611443 -.00004015  00000-0 -25094-3 0  9998
2 44961  53.0533 174.1946 0001526  84.3689 275.7474 15.06382582211908
1 44961U 20001AZ  23312.92863118  .00000941  00000-0  82108-4 0  9993
2 44961  53.0534 170.3236 0001424  87.4088 272.7064 15.06387065212031
1 44961U 20001AZ  23312.99497852  .00001653  00000-0  12988-3 0  9997
2 44961  53.0533 170.0256 0001424  86.3450 273.7701 15.06388183212042
1 44961U 20001AZ  23313.59210448  .00003626  00000-0  26226-3 0  9990
2 44961  53.0532 167.3452 0001436  84.5997 275.5156 15.06392017212132
1 44961U 20001AZ  23313.85749316  .00005871  00000-0  41272-3 0  9992
2 44961  53.0527 166.1540 0001404  84.1410 275.9739 15.06395643212175
1 44961U 20001AZ  23314.32192012  .00006296  00000-0  44115-3 0  9991
2 44961  53.0525 164.0691 0001416  83.1183 276.9967 15.06402402212240
1 44961U 20001AZ  23314.32192012  .00006296  00000-0  44115-3 0  9991
2 44961  53.0525 164.0691 0001416  83.1183 276.9967 15.06402402212240
1 44961U 20001AZ  23314.85270305  .00006603  00000-0  46190-3 0  9998
2 44961  53.0530 161.6869 0001457  88.0407 272.0748 15.06387534212325
1 44961U 20001AZ  23314.85270305  .00006603  00000-0  46190-3 0  9998
2 44961  53.0530 161.6869 0001457  88.0407 272.0748 15.06387534212325
1 44961U 20001AZ  23314.98539512 -.00000360  00000-0 -52806-5 0  9999
2 44961  53.0530 161.0911 0001472  85.9779 274.1379 15.06387992212345
1 44961U 20001AZ  23315.84790009  .00003177  00000-0  23205-3 0  9991
2 44961  53.0524 157.2188 0001480  86.1783 273.9375 15.06404132212471
1 44961U 20001AZ  23316.51136460  .00003622  00000-0  26189-3 0  9990
2 44961  53.0521 154.2405 0001477  85.2377 274.8781 15.06409299212573
1 44961U 20001AZ  23316.84309573  .00004180  00000-0  29922-3 0  9991
2 44961  53.0521 152.7505 0001570  86.7292 273.3876 15.06415686212625
1 44961U 20001AZ  23316.84309573  .00004180  00000-0  29922-3 0  9991
2 44961  53.0521 152.7505 0001570  86.7292 273.3876 15.06415686212625
1 44961U 20001AZ  23317.57290879  .00000392  00000-0  45240-4 0  9993
2 44961  53.0516 149.4743 0001566  88.0121 272.1047 15.06407296212734
1 44961U 20001AZ  23317.83829442  .00000699  00000-0  65838-4 0  9991
2 44961  53.0517 148.2828 0001556  88.1925 271.9242 15.06407948212770
1 44961U 20001AZ  23317.90464066  .00001513  00000-0  12045-3 0  9993
2 44961  53.0521 147.9846 0001597  87.9634 272.1538 15.06409989212789
1 44961U 20001AZ  23318.23637382  .00000460  00000-0  49756-4 0  9993
2 44961  53.0529 146.4959 0001652  89.1407 270.9772 15.06407169212830
1 44961U 20001AZ  23318.63444929  .00000949  00000-0  82592-4 0  9997
2 44961  53.0520 144.7077 0001559  88.2284 271.8883 15.06412210212894
1 44961U 20001AZ  23319.49696430  .00000823  00000-0  74122-4 0  9999
2 44961  53.0522 140.8356 0001562  87.7477 272.3691 15.06394943213026
1 44961U 20001AZ  23319.49696430  .00000823  00000-0  74122-4 0  9999
2 44961  53.0522 140.8356 0001562  87.7477 272.3691 15.06394943213026
1 44961U 20001AZ  23319.89505260 -.00001012  00000-0 -49079-4 0  9999
2 44961  53.0545 139.0479 0001353  85.3942 274.7202 15.06393518213083
1 44961U 20001AZ  23319.89505260 -.00001012  00000-0 -49079-4 0  9999
2 44961  53.0545 139.0479 0001353  85.3942 274.7202 15.06393518213083
1 44961U 20001AZ  23320.89025895 -.00000045  00000-0  15853-4 0  9999
2 44961  53.0543 134.5791 0001404  91.7332 268.3817 15.06389141213234
1 44961U 20001AZ  23321.48738305  .00001380  00000-0  11156-3 0  9995
2 44961  53.0535 131.8995 0001451  87.9396 272.1759 15.06386251213327
1 44961U 20001AZ  23321.48738305  .00001380  00000-0  11156-3 0  9995
2 44961  53.0535 131.8995 0001451  87.9396 272.1759 15.06386251213327
1 44961U 20001AZ  23321.88546486  .00001641  00000-0  12908-3 0  9992
2 44961  53.0535 130.1132 0001481  84.1139 276.0019 15.06388903213383
1 44961U 20001AZ  23322.74797485  .00001705  00000-0  13332-3 0  9998
2 44961  53.0537 126.2415 0001500  83.4115 276.7044 15.06394544213511
1 44961U 20001AZ  23322.88066818  .00001385  00000-0  11185-3 0  9990
2 44961  53.0526 125.6454 0001428  81.7456 278.3695 15.06395380213534
1 44961U 20001AZ  23323.61047972  .00001449  00000-0  11616-3 0  9992
2 44961  53.0538 122.3690 0001459  82.2877 277.8278 15.06402788213644
1 44961U 20001AZ  23323.87586552  .00001518  00000-0  12076-3 0  9990
2 44961  53.0533 121.1777 0001465  82.3857 277.7298 15.06403430213688
1 44961U 20001AZ  23324.14125016  .00001611  00000-0  12701-3 0  9994
2 44961  53.0534 119.9864 0001463  82.5891 277.5264 15.06406009213720
1 44961U 20001AZ  23324.60567294  .00001737  00000-0  13546-3 0  9990
2 44961  53.0536 117.9013 0001444  82.8129 277.3024 15.06411511213795
1 44961U 20001AZ  23324.73836501  .00001868  00000-0  14419-3 0  9999
2 44961  53.0538 117.3056 0001448  82.6240 277.4914 15.06412607213813
1 44961U 20001AZ  23325.13645374  .00000031  00000-0  20980-4 0  9992
2 44961  53.0538 115.5186 0001495  85.0036 275.1124 15.06400372213879
1 44961U 20001AZ  23325.46818429  .00000503  00000-0  52633-4 0  9995
2 44961  53.0540 114.0294 0001334  87.2552 272.8589 15.06403918213929
1 44961U 20001AZ  23325.73356539  .00000517  00000-0  53611-4 0  9996
2 44961  53.0531 112.8379 0001438  85.3222 274.7931 15.06407477213967
1 44961U 20001AZ  23325.73356539  .00000517  00000-0  53611-4 0  9996
2 44961  53.0531 112.8379 0001438  85.3222 274.7931 15.06407477213967
1 44961U 20001AZ  23326.59606547  .00004088  00000-0  29304-3 0  9996
2 44961  53.0529 108.9658 0001418  86.4238 273.6913 15.06416478214091
1 44961U 20001AZ  23326.66241119  .00004803  00000-0  34093-3 0  9990
2 44961  53.0528 108.6677 0001428  86.1566 273.9586 15.06418646214100
1 44961U 20001AZ  23326.66241119  .00004803  00000-0  34093-3 0  9990
2 44961  53.0528 108.6677 0001428  86.1566 273.9586 15.06418646214100
1 44961U 20001AZ  23327.39223011  .00002172  00000-0  16466-3 0  9993
2 44961  53.0530 105.3918 0001856 106.2246 253.8947 15.06404951214213
1 44961U 20001AZ  23327.59127304  .00001503  00000-0  11980-3 0  9996
2 44961  53.0527 104.4979 0001469  88.9157 271.2000 15.06401068214246
1 44961U 20001AZ  23327.65762084 -.00000191  00000-0  60742-5 0  9998
2 44961  53.0526 104.1994 0001413  88.0886 272.0265 15.06396430214257
1 44961U 20001AZ  23327.65762084 -.00000191  00000-0  60742-5 0  9998
2 44961  53.0526 104.1994 0001413  88.0886 272.0265 15.06396430214257
1 44961U 20001AZ  23328.58647577  .00002219  00000-0  16783-3 0  9996
2 44961  53.0533 100.0285 0001377  93.9894 266.1252 15.06403176214397
1 44961U 20001AZ  23329.58168511  .00002532  00000-0  18880-3 0  9991
2 44961  53.0530  95.5630 0001357  79.0217 281.0925 15.06396484214541
1 44961U 20001AZ  23330.51053914 -.00001330  00000-0 -70399-4 0  9997
2 44961  53.0536  91.3784 0001952 127.6071 232.5096 15.06392159214680
1 44961U 20001AZ  23330.57689756 -.00007486  00000-0 -48461-3 0  9994
2 44961  53.0535  91.0943 0001276  63.1223 296.9896 15.06369296214694
1 44961U 20001AZ  23330.57689756 -.00007486  00000-0 -48461-3 0  9994
2 44961  53.0535  91.0943 0001276  63.1223 296.9896 15.06369296214694
1 44961U 20001AZ  23331.50576512 -.00000696  00000-0 -27849-4 0  9997
2 44961  53.0556  86.9290 0001218  72.0244 288.0878 15.06379844214831
1 44961U 20001AZ  23331.57211346  .00000004  00000-0  19194-4 0  9990
2 44961  53.0552  86.6305 0001774  53.6214 306.4938 15.06383152214840
1 44961U 20001AZ  23332.50096346  .00011424  00000-0  78440-3 0  9991
2 44961  53.0539  82.4572 0001246  66.8344 293.2776 15.06409056214989
1 44961U 20001AZ  23332.56730902  .00013951  00000-0  95313-3 0  9995
2 44961  53.0538  82.1596 0001320  62.2234 297.8888 15.06418008214994
1 44961U 20001AZ  23332.63365415  .00016595  00000-0  11295-2 0  9999
2 44961  53.0537  81.8620 0001411  57.8766 302.2360 15.06427043215006
1 44961U 20001AZ  23332.63365415  .00016595  00000-0  11295-2 0  9999
2 44961  53.0537  81.8620 0001411  57.8766 302.2360 15.06427043215006
1 44961U 20001AZ  23333.49616457  .00008433  00000-0  58417-3 0  9999
2 44961  53.0543  77.9902 0001777  50.0754 310.0391 15.06410194215133
1 44961U 20001AZ  23333.56251009  .00008645  00000-0  59838-3 0  9998
2 44961  53.0543  77.6919 0001469  60.4337 299.6798 15.06410456215143
1 44961U 20001AZ  23334.49135201  .00016062  00000-0  10937-2 0  9994
2 44961  53.0538  73.5231 0001370  62.7316 297.3812 15.06434921215282
1 44961U 20001AZ  23335.48655105 -.00000180  00000-0  68354-5 0  9998
2 44961  53.0540  69.0543 0001396  92.9989 267.1159 15.06400232215434
1 44961U 20001AZ  23335.88463452  .00020982  00000-0  14230-2 0  9996
2 44961  53.0547  67.2646 0001348  87.0350 273.0793 15.06407309215497
